[{"OBJECT_NAME":"STARLINK-2578","OBJECT_ID":"2021-038K","EPOCH":"2026-03-09T23:16:13.770048","MEAN_MOTION":15.30190999,"ECCENTRICITY":0.00010878,"INCLINATION":53.1606,"RA_OF_ASC_NODE":356.8437,"ARG_OF_PERICENTER":75.1008,"MEAN_ANOMALY":285.0113,"EPHEMERIS_TYPE":0,"CLASSIFICATION_TYPE":"U","NORAD_CAT_ID":48362,"ELEMENT_SET_NO":999,"REV_AT_EPOCH":26712,"BSTAR":1.485338e-5,"MEAN_MOTION_DOT":8.1e-7,"MEAN_MOTION_DDOT":0},{"OBJECT_NAME":"CZ-6A DEB","OBJECT_ID":"2022-151QB","EPOCH":"2026-03-08T18:03:47.471328","MEAN_MOTION":15.32168285,"ECCENTRICITY":0.00205863,"INCLINATION":98.6246,"RA_OF_ASC_NODE":151.4486,"ARG_OF_PERICENTER":181.9757,"MEAN_ANOMALY":178.1404,"EPHEMERIS_TYPE":0,"CLASSIFICATION_TYPE":"U","NORAD_CAT_ID":54890,"ELEMENT_SET_NO":999,"REV_AT_EPOCH":17659,"BSTAR":0.012866954,"MEAN_MOTION_DOT":0.00424465,"MEAN_MOTION_DDOT":0}]
